CCSDS_OMM_VERS = 2.0
CREATION_DATE  = 
ORIGINATOR     = 

OBJECT_NAME    = STARLINK-36229
OBJECT_ID      = 2026-044P
CENTER_NAME    = EARTH
REF_FRAME      = TEME
TIME_SYSTEM    = UTC
MEAN_ELEMENT_THEORY = SGP/SGP4

EPOCH          = 2026-03-17T14:00:01.999872
MEAN_MOTION    = 15.91702187
ECCENTRICITY   = .00017788
INCLINATION    = 97.2801
RA_OF_ASC_NODE = 37.0773
ARG_OF_PERICENTER = 106.4547
MEAN_ANOMALY   = 135.8320

EPHEMERIS_TYPE = 0
CLASSIFICATION_TYPE = U
NORAD_CAT_ID   = 68114
ELEMENT_SET_NO = 999
REV_AT_EPOCH   = 267
BSTAR          = -.67315044E-2
MEAN_MOTION_DOT = -.2159454E-1
MEAN_MOTION_DDOT = .12564299E-2

CCSDS_OMM_VERS = 2.0
CREATION_DATE  = 
ORIGINATOR     = 

OBJECT_NAME    = STARLINK-36392
OBJECT_ID      = 2026-044Q
CENTER_NAME    = EARTH
REF_FRAME      = TEME
TIME_SYSTEM    = UTC
MEAN_ELEMENT_THEORY = SGP/SGP4

EPOCH          = 2026-03-17T14:00:01.999872
MEAN_MOTION    = 15.91937414
ECCENTRICITY   = .00016663
INCLINATION    = 97.2804
RA_OF_ASC_NODE = 37.0806
ARG_OF_PERICENTER = 107.0172
MEAN_ANOMALY   = 141.9171

EPHEMERIS_TYPE = 0
CLASSIFICATION_TYPE = U
NORAD_CAT_ID   = 68115
ELEMENT_SET_NO = 999
REV_AT_EPOCH   = 267
BSTAR          = -.66644507E-2
MEAN_MOTION_DOT = -.2163776E-1
MEAN_MOTION_DDOT = .12643417E-2

CCSDS_OMM_VERS = 2.0
CREATION_DATE  = 
ORIGINATOR     = 

OBJECT_NAME    = STARLINK-36805
OBJECT_ID      = 2026-044R
CENTER_NAME    = EARTH
REF_FRAME      = TEME
TIME_SYSTEM    = UTC
MEAN_ELEMENT_THEORY = SGP/SGP4

EPOCH          = 2026-03-17T14:00:01.999872
MEAN_MOTION    = 15.92030263
ECCENTRICITY   = .00016864
INCLINATION    = 97.2802
RA_OF_ASC_NODE = 37.0821
ARG_OF_PERICENTER = 105.8778
MEAN_ANOMALY   = 146.9186

EPHEMERIS_TYPE = 0
CLASSIFICATION_TYPE = U
NORAD_CAT_ID   = 68116
ELEMENT_SET_NO = 999
REV_AT_EPOCH   = 267
BSTAR          = -.66753429E-2
MEAN_MOTION_DOT = -.2177523E-1
MEAN_MOTION_DDOT = .12809221E-2

CCSDS_OMM_VERS = 2.0
CREATION_DATE  = 
ORIGINATOR     = 

OBJECT_NAME    = STARLINK-36844
OBJECT_ID      = 2026-044S
CENTER_NAME    = EARTH
REF_FRAME      = TEME
TIME_SYSTEM    = UTC
MEAN_ELEMENT_THEORY = SGP/SGP4

EPOCH          = 2026-03-17T14:00:01.999872
MEAN_MOTION    = 15.92158050
ECCENTRICITY   = .00016978
INCLINATION    = 97.2798
RA_OF_ASC_NODE = 37.0831
ARG_OF_PERICENTER = 106.6758
MEAN_ANOMALY   = 149.2598

EPHEMERIS_TYPE = 0
CLASSIFICATION_TYPE = U
NORAD_CAT_ID   = 68117
ELEMENT_SET_NO = 999
REV_AT_EPOCH   = 262
BSTAR          = -.66320227E-2
MEAN_MOTION_DOT = -.2177647E-1
MEAN_MOTION_DDOT = .12827984E-2

CCSDS_OMM_VERS = 2.0
CREATION_DATE  = 
ORIGINATOR     = 

OBJECT_NAME    = STARLINK-36789
OBJECT_ID      = 2026-044T
CENTER_NAME    = EARTH
REF_FRAME      = TEME
TIME_SYSTEM    = UTC
MEAN_ELEMENT_THEORY = SGP/SGP4

EPOCH          = 2026-03-17T14:00:01.999872
MEAN_MOTION    = 15.92153690
ECCENTRICITY   = .00016777
INCLINATION    = 97.2798
RA_OF_ASC_NODE = 37.0856
ARG_OF_PERICENTER = 103.9705
MEAN_ANOMALY   = 157.3675

EPHEMERIS_TYPE = 0
CLASSIFICATION_TYPE = U
NORAD_CAT_ID   = 68118
ELEMENT_SET_NO = 999
REV_AT_EPOCH   = 262
BSTAR          = -.67360169E-2
MEAN_MOTION_DOT = -.221094E-1
MEAN_MOTION_DDOT = .13203702E-2

CCSDS_OMM_VERS = 2.0
CREATION_DATE  = 
ORIGINATOR     = 

OBJECT_NAME    = STARLINK-36850
OBJECT_ID      = 2026-044U
CENTER_NAME    = EARTH
REF_FRAME      = TEME
TIME_SYSTEM    = UTC
MEAN_ELEMENT_THEORY = SGP/SGP4

EPOCH          = 2026-03-17T14:00:01.999872
MEAN_MOTION    = 15.92279245
ECCENTRICITY   = .00016825
INCLINATION    = 97.2797
RA_OF_ASC_NODE = 37.0870
ARG_OF_PERICENTER = 105.6028
MEAN_ANOMALY   = 158.9536

EPHEMERIS_TYPE = 0
CLASSIFICATION_TYPE = U
NORAD_CAT_ID   = 68119
ELEMENT_SET_NO = 999
REV_AT_EPOCH   = 262
BSTAR          = -.66971113E-2
MEAN_MOTION_DOT = -.2212405E-1
MEAN_MOTION_DDOT = .13238155E-2

CCSDS_OMM_VERS = 2.0
CREATION_DATE  = 
ORIGINATOR     = 

OBJECT_NAME    = STARLINK-36868
OBJECT_ID      = 2026-044V
CENTER_NAME    = EARTH
REF_FRAME      = TEME
TIME_SYSTEM    = UTC
MEAN_ELEMENT_THEORY = SGP/SGP4

EPOCH          = 2026-03-17T14:00:01.999872
MEAN_MOTION    = 15.92378975
ECCENTRICITY   = .00016028
INCLINATION    = 97.2792
RA_OF_ASC_NODE = 37.0888
ARG_OF_PERICENTER = 99.6959
MEAN_ANOMALY   = 168.6548

EPHEMERIS_TYPE = 0
CLASSIFICATION_TYPE = U
NORAD_CAT_ID   = 68120
ELEMENT_SET_NO = 999
REV_AT_EPOCH   = 262
BSTAR          = -.67120118E-2
MEAN_MOTION_DOT = -.2228559E-1
MEAN_MOTION_DDOT = .13437749E-2

CCSDS_OMM_VERS = 2.0
CREATION_DATE  = 
ORIGINATOR     = 

OBJECT_NAME    = STARLINK-36855
OBJECT_ID      = 2026-044W
CENTER_NAME    = EARTH
REF_FRAME      = TEME
TIME_SYSTEM    = UTC
MEAN_ELEMENT_THEORY = SGP/SGP4

EPOCH          = 2026-03-17T14:00:01.999872
MEAN_MOTION    = 15.92487886
ECCENTRICITY   = .00016776
INCLINATION    = 97.2792
RA_OF_ASC_NODE = 37.0907
ARG_OF_PERICENTER = 108.2427
MEAN_ANOMALY   = 163.6551

EPHEMERIS_TYPE = 0
CLASSIFICATION_TYPE = U
NORAD_CAT_ID   = 68121
ELEMENT_SET_NO = 999
REV_AT_EPOCH   = 262
BSTAR          = -.66804197E-2
MEAN_MOTION_DOT = -.2230574E-1
MEAN_MOTION_DDOT = .13476724E-2

CCSDS_OMM_VERS = 2.0
CREATION_DATE  = 
ORIGINATOR     = 

OBJECT_NAME    = STARLINK-36366
OBJECT_ID      = 2026-044X
CENTER_NAME    = EARTH
REF_FRAME      = TEME
TIME_SYSTEM    = UTC
MEAN_ELEMENT_THEORY = SGP/SGP4

EPOCH          = 2026-03-17T14:00:01.999872
MEAN_MOTION    = 15.92616000
ECCENTRICITY   = .00016163
INCLINATION    = 97.2790
RA_OF_ASC_NODE = 37.0917
ARG_OF_PERICENTER = 104.5776
MEAN_ANOMALY   = 170.4125

EPHEMERIS_TYPE = 0
CLASSIFICATION_TYPE = U
NORAD_CAT_ID   = 68122
ELEMENT_SET_NO = 999
REV_AT_EPOCH   = 267
BSTAR          = -.66250535E-2
MEAN_MOTION_DOT = -.2226794E-1
MEAN_MOTION_DDOT = .13451666E-2

CCSDS_OMM_VERS = 2.0
CREATION_DATE  = 
ORIGINATOR     = 

OBJECT_NAME    = STARLINK-36922
OBJECT_ID      = 2026-044Y
CENTER_NAME    = EARTH
REF_FRAME      = TEME
TIME_SYSTEM    = UTC
MEAN_ELEMENT_THEORY = SGP/SGP4

EPOCH          = 2026-03-17T14:00:01.999872
MEAN_MOTION    = 15.92860670
ECCENTRICITY   = .00018088
INCLINATION    = 97.2790
RA_OF_ASC_NODE = 37.0947
ARG_OF_PERICENTER = 116.8559
MEAN_ANOMALY   = 164.6615

EPHEMERIS_TYPE = 0
CLASSIFICATION_TYPE = U
NORAD_CAT_ID   = 68123
ELEMENT_SET_NO = 999
REV_AT_EPOCH   = 267
BSTAR          = -.65443003E-2
MEAN_MOTION_DOT = -.2227752E-1
MEAN_MOTION_DDOT = .1349835E-2

CCSDS_OMM_VERS = 2.0
CREATION_DATE  = 
ORIGINATOR     = 

OBJECT_NAME    = STARLINK-36938
OBJECT_ID      = 2026-044Z
CENTER_NAME    = EARTH
REF_FRAME      = TEME
TIME_SYSTEM    = UTC
MEAN_ELEMENT_THEORY = SGP/SGP4

EPOCH          = 2026-03-17T14:00:01.999872
MEAN_MOTION    = 15.92999258
ECCENTRICITY   = .00015765
INCLINATION    = 97.2789
RA_OF_ASC_NODE = 37.0959
ARG_OF_PERICENTER = 103.7320
MEAN_ANOMALY   = 180.8174

EPHEMERIS_TYPE = 0
CLASSIFICATION_TYPE = U
NORAD_CAT_ID   = 68124
ELEMENT_SET_NO = 999
REV_AT_EPOCH   = 267
BSTAR          = -.65236743E-2
MEAN_MOTION_DOT = -.2236588E-1
MEAN_MOTION_DDOT = .13621508E-2

CCSDS_OMM_VERS = 2.0
CREATION_DATE  = 
ORIGINATOR     = 

OBJECT_NAME    = STARLINK-36839
OBJECT_ID      = 2026-044AA
CENTER_NAME    = EARTH
REF_FRAME      = TEME
TIME_SYSTEM    = UTC
MEAN_ELEMENT_THEORY = SGP/SGP4

EPOCH          = 2026-03-17T14:00:01.999872
MEAN_MOTION    = 15.92730675
ECCENTRICITY   = .00016098
INCLINATION    = 97.2792
RA_OF_ASC_NODE = 37.0935
ARG_OF_PERICENTER = 106.1407
MEAN_ANOMALY   = 172.3714

EPHEMERIS_TYPE = 0
CLASSIFICATION_TYPE = U
NORAD_CAT_ID   = 68125
ELEMENT_SET_NO = 999
REV_AT_EPOCH   = 262
BSTAR          = -.66152506E-2
MEAN_MOTION_DOT = -.2236629E-1
MEAN_MOTION_DDOT = .13582349E-2

CCSDS_OMM_VERS = 2.0
CREATION_DATE  = 
ORIGINATOR     = 

OBJECT_NAME    = ECHOSTAR 25
OBJECT_ID      = 2026-045A
CENTER_NAME    = EARTH
REF_FRAME      = TEME
TIME_SYSTEM    = UTC
MEAN_ELEMENT_THEORY = SGP/SGP4

EPOCH          = 2026-03-15T03:38:29.075424
MEAN_MOTION    = 3.07256928
ECCENTRICITY   = .66683682
INCLINATION    = 26.8649
RA_OF_ASC_NODE = 68.3559
ARG_OF_PERICENTER = 178.8166
MEAN_ANOMALY   = 184.5786

EPHEMERIS_TYPE = 0
CLASSIFICATION_TYPE = U
NORAD_CAT_ID   = 68126
ELEMENT_SET_NO = 999
REV_AT_EPOCH   = 18
BSTAR          = .49011704E-3
MEAN_MOTION_DOT = .1699E-4
MEAN_MOTION_DDOT = 0

CCSDS_OMM_VERS = 2.0
CREATION_DATE  = 
ORIGINATOR     = 

OBJECT_NAME    = ICOR SV
OBJECT_ID      = 2026-046A
CENTER_NAME    = EARTH
REF_FRAME      = TEME
TIME_SYSTEM    = UTC
MEAN_ELEMENT_THEORY = SGP/SGP4

EPOCH          = 2026-03-13T21:49:43.816224
MEAN_MOTION    = 15.82606913
ECCENTRICITY   = .0140888
INCLINATION    = 123.0797
RA_OF_ASC_NODE = 224.1306
ARG_OF_PERICENTER = 188.2572
MEAN_ANOMALY   = 171.6170

EPHEMERIS_TYPE = 0
CLASSIFICATION_TYPE = U
NORAD_CAT_ID   = 68127
ELEMENT_SET_NO = 999
REV_AT_EPOCH   = 29
BSTAR          = .10434E-2
MEAN_MOTION_DOT = .482503E-2
MEAN_MOTION_DDOT = .92133E-4

CCSDS_OMM_VERS = 2.0
CREATION_DATE  = 
ORIGINATOR     = 

OBJECT_NAME    = FIREFLY ALPHA R/B
OBJECT_ID      = 2026-046B
CENTER_NAME    = EARTH
REF_FRAME      = TEME
TIME_SYSTEM    = UTC
MEAN_ELEMENT_THEORY = SGP/SGP4

EPOCH          = 2026-03-17T05:11:06.625824
MEAN_MOTION    = 15.56331915
ECCENTRICITY   = .0013992
INCLINATION    = 123.0908
RA_OF_ASC_NODE = 238.3417
ARG_OF_PERICENTER = 352.2946
MEAN_ANOMALY   = 7.7898

EPHEMERIS_TYPE = 0
CLASSIFICATION_TYPE = U
NORAD_CAT_ID   = 68128
ELEMENT_SET_NO = 999
REV_AT_EPOCH   = 81
BSTAR          = .44337802E-3
MEAN_MOTION_DOT = .31508E-3
MEAN_MOTION_DDOT = 0

